{
  "type": "FeatureCollection",
  "features": [
    {
      "type": "Feature",
      "properties": {
        "norad_id": 34314,
        "name": "COSMOS 2251 DEB",
        "group": "cosmos-2251-debris",
        "lat": -55.991586902001,
        "lon": -69.48092537386113,
        "alt_km": 879.4390799894636,
        "timestamp": "2025-12-08T15:42:50.190001+00:00",
        "meta_object_name": "COSMOS 2251 DEB",
        "meta_object_id": "1993-036NL",
        "meta_epoch": "2025-12-08T04:13:04.112256",
        "meta_mean_motion": 14.17406668,
        "meta_eccentricity": 0.01026956,
        "meta_inclination": 74.0069,
        "meta_ra_of_asc_node": 316.5279,
        "meta_arg_of_pericenter": 63.3588,
        "meta_mean_anomaly": 314.8808,
        "meta_ephemeris_type": 0,
        "meta_classification_type": "U",
        "meta_norad_cat_id": 34314,
        "meta_element_set_no": 999,
        "meta_rev_at_epoch": 86593,
        "meta_bstar": 0.00091929874,
        "meta_mean_motion_dot": 1.936e-05,
        "meta_mean_motion_ddot": 0,
        "tle_line1": "1 34314U 93036NL  25342.17574204  .00001936  00000+0  91930-3 0  9995",
        "tle_line2": "2 34314  74.0069 316.5279 0102695  63.3588 314.8808 14.17406668865938"
      },
      "geometry": {
        "type": "Point",
        "coordinates": [
          -69.48092537386113,
          -55.991586902001
        ]
      }
    },
    {
      "type": "Feature",
      "properties": {
        "norad_id": 34316,
        "name": "COSMOS 2251 DEB",
        "group": "cosmos-2251-debris",
        "lat": 55.2611686782995,
        "lon": 140.7424149615171,
        "alt_km": 583.6213852133969,
        "timestamp": "2025-12-08T15:42:50.190012+00:00",
        "meta_object_name": "COSMOS 2251 DEB",
        "meta_object_id": "1993-036NN",
        "meta_epoch": "2025-12-08T07:07:29.409024",
        "meta_mean_motion": 14.91621407,
        "meta_eccentricity": 0.00080508,
        "meta_inclination": 74.0668,
        "meta_ra_of_asc_node": 345.7876,
        "meta_arg_of_pericenter": 72.1466,
        "meta_mean_anomaly": 288.0594,
        "meta_ephemeris_type": 0,
        "meta_classification_type": "U",
        "meta_norad_cat_id": 34316,
        "meta_element_set_no": 999,
        "meta_rev_at_epoch": 89143,
        "meta_bstar": 0.001939982,
        "meta_mean_motion_dot": 0.00019514,
        "meta_mean_motion_ddot": 0,
        "tle_line1": "1 34316U 93036NN  25342.29686816  .00019514  00000+0  19400-2 0  9995",
        "tle_line2": "2 34316  74.0668 345.7876 0008050  72.1466 288.0594 14.91621407891435"
      },
      "geometry": {
        "type": "Point",
        "coordinates": [
          140.7424149615171,
          55.2611686782995
        ]
      }
    },
    {
      "type": "Feature",
      "properties": {
        "norad_id": 34317,
        "name": "COSMOS 2251 DEB",
        "group": "cosmos-2251-debris",
        "lat": -69.19588811821204,
        "lon": -6.883746455914366,
        "alt_km": 1098.1082624264473,
        "timestamp": "2025-12-08T15:42:50.190022+00:00",
        "meta_object_name": "COSMOS 2251 DEB",
        "meta_object_id": "1993-036NP",
        "meta_epoch": "2025-12-08T05:47:20.571648",
        "meta_mean_motion": 13.65116356,
        "meta_eccentricity": 0.03363818,
        "meta_inclination": 73.9249,
        "meta_ra_of_asc_node": 43.1635,
        "meta_arg_of_pericenter": 33.3033,
        "meta_mean_anomaly": 22.2326,
        "meta_ephemeris_type": 0,
        "meta_classification_type": "U",
        "meta_norad_cat_id": 34317,
        "meta_element_set_no": 999,
        "meta_rev_at_epoch": 83558,
        "meta_bstar": 0.00062547356,
        "meta_mean_motion_dot": 7.25e-06,
        "meta_mean_motion_ddot": 0,
        "tle_line1": "1 34317U 93036NP  25342.24121032  .00000725  00000+0  62547-3 0  9990",
        "tle_line2": "2 34317  73.9249  43.1635 0336381  33.3033  22.2326 13.65116356835588"
      },
      "geometry": {
        "type": "Point",
        "coordinates": [
          -6.883746455914366,
          -69.19588811821204
        ]
      }
    },
    {
      "type": "Feature",
      "properties": {
        "norad_id": 34321,
        "name": "COSMOS 2251 DEB",
        "group": "cosmos-2251-debris",
        "lat": 16.548600709108726,
        "lon": -20.84515694061538,
        "alt_km": 733.1290745851238,
        "timestamp": "2025-12-08T15:42:50.190032+00:00",
        "meta_object_name": "COSMOS 2251 DEB",
        "meta_object_id": "1993-036NT",
        "meta_epoch": "2025-12-08T05:49:37.583040",
        "meta_mean_motion": 14.50025433,
        "meta_eccentricity": 0.00157153,
        "meta_inclination": 74.0281,
        "meta_ra_of_asc_node": 164.8103,
        "meta_arg_of_pericenter": 294.6114,
        "meta_mean_anomaly": 238.6319,
        "meta_ephemeris_type": 0,
        "meta_classification_type": "U",
        "meta_norad_cat_id": 34321,
        "meta_element_set_no": 999,
        "meta_rev_at_epoch": 88421,
        "meta_bstar": 0.00082933542,
        "meta_mean_motion_dot": 3.192e-05,
        "meta_mean_motion_ddot": 0,
        "tle_line1": "1 34321U 93036NT  25342.24279610  .00003192  00000+0  82934-3 0  9994",
        "tle_line2": "2 34321  74.0281 164.8103 0015715 294.6114 238.6319 14.50025433884218"
      },
      "geometry": {
        "type": "Point",
        "coordinates": [
          -20.84515694061538,
          16.548600709108726
        ]
      }
    },
    {
      "type": "Feature",
      "properties": {
        "norad_id": 34323,
        "name": "COSMOS 2251 DEB",
        "group": "cosmos-2251-debris",
        "lat": -1.5951641661652152,
        "lon": -48.410961724017376,
        "alt_km": 608.5410268085216,
        "timestamp": "2025-12-08T15:42:50.190043+00:00",
        "meta_object_name": "COSMOS 2251 DEB",
        "meta_object_id": "1993-036NV",
        "meta_epoch": "2025-12-08T04:17:48.115104",
        "meta_mean_motion": 14.74181563,
        "meta_eccentricity": 0.00600488,
        "meta_inclination": 73.9535,
        "meta_ra_of_asc_node": 132.0626,
        "meta_arg_of_pericenter": 177.1162,
        "meta_mean_anomaly": 0.7233,
        "meta_ephemeris_type": 0,
        "meta_classification_type": "U",
        "meta_norad_cat_id": 34323,
        "meta_element_set_no": 999,
        "meta_rev_at_epoch": 88372,
        "meta_bstar": 0.0034448535,
        "meta_mean_motion_dot": 0.00023455,
        "meta_mean_motion_ddot": 0,
        "tle_line1": "1 34323U 93036NV  25342.17902911  .00023455  00000+0  34449-2 0  9996",
        "tle_line2": "2 34323  73.9535 132.0626 0060048 177.1162   0.7233 14.74181563883725"
      },
      "geometry": {
        "type": "Point",
        "coordinates": [
          -48.410961724017376,
          -1.5951641661652152
        ]
      }
    },
    {
      "type": "Feature",
      "properties": {
        "norad_id": 34325,
        "name": "COSMOS 2251 DEB",
        "group": "cosmos-2251-debris",
        "lat": -14.92245344841954,
        "lon": -164.41789829320783,
        "alt_km": 963.9865101797104,
        "timestamp": "2025-12-08T15:42:50.190054+00:00",
        "meta_object_name": "COSMOS 2251 DEB",
        "meta_object_id": "1993-036NX",
        "meta_epoch": "2025-12-08T01:08:04.692192",
        "meta_mean_motion": 14.04430045,
        "meta_eccentricity": 0.01926991,
        "meta_inclination": 73.8712,
        "meta_ra_of_asc_node": 201.0747,
        "meta_arg_of_pericenter": 219.3484,
        "meta_mean_anomaly": 293.2586,
        "meta_ephemeris_type": 0,
        "meta_classification_type": "U",
        "meta_norad_cat_id": 34325,
        "meta_element_set_no": 999,
        "meta_rev_at_epoch": 85449,
        "meta_bstar": 0.0022481049,
        "meta_mean_motion_dot": 4.203e-05,
        "meta_mean_motion_ddot": 0,
        "tle_line1": "1 34325U 93036NX  25342.04727653  .00004203  00000+0  22481-2 0  9995",
        "tle_line2": "2 34325  73.8712 201.0747 0192699 219.3484 293.2586 14.04430045854495"
      },
      "geometry": {
        "type": "Point",
        "coordinates": [
          -164.41789829320783,
          -14.92245344841954
        ]
      }
    },
    {
      "type": "Feature",
      "properties": {
        "norad_id": 34327,
        "name": "COSMOS 2251 DEB",
        "group": "cosmos-2251-debris",
        "lat": -5.504607963508949,
        "lon": 178.48199533313704,
        "alt_km": 581.6334758243047,
        "timestamp": "2025-12-08T15:42:50.190064+00:00",
        "meta_object_name": "COSMOS 2251 DEB",
        "meta_object_id": "1993-036NZ",
        "meta_epoch": "2025-12-08T00:08:55.107168",
        "meta_mean_motion": 14.89022635,
        "meta_eccentricity": 0.00325026,
        "meta_inclination": 73.9933,
        "meta_ra_of_asc_node": 181.3658,
        "meta_arg_of_pericenter": 358.6298,
        "meta_mean_anomaly": 120.6579,
        "meta_ephemeris_type": 0,
        "meta_classification_type": "U",
        "meta_norad_cat_id": 34327,
        "meta_element_set_no": 999,
        "meta_rev_at_epoch": 89437,
        "meta_bstar": 0.0014925528,
        "meta_mean_motion_dot": 0.00014182,
        "meta_mean_motion_ddot": 0,
        "tle_line1": "1 34327U 93036NZ  25342.00619337  .00014182  00000+0  14926-2 0  9994",
        "tle_line2": "2 34327  73.9933 181.3658 0032502 358.6298 120.6579 14.89022635894371"
      },
      "geometry": {
        "type": "Point",
        "coordinates": [
          178.48199533313704,
          -5.504607963508949
        ]
      }
    }
  ]
}